[{"CCSDS_OMM_VERS":"2.0","COMMENT":"GENERATED VIA SPACE-TRACK.ORG API","CREATION_DATE":"2017-08-19T15:20:17","ORIGINATOR":"18 SPCS","OBJECT_NAME":"UPSAT","OBJECT_ID":"1998-067LX","CENTER_NAME":"EARTH","REF_FRAME":"TEME","TIME_SYSTEM":"UTC","MEAN_ELEMENT_THEORY":"SGP4","EPOCH":"2017-08-19T12:18:18.842112","MEAN_MOTION":"15.57255380","ECCENTRICITY":"0.00049160","INCLINATION":"51.6396","RA_OF_ASC_NODE":"81.2882","ARG_OF_PERICENTER":"193.3097","MEAN_ANOMALY":"166.7766","EPHEMERIS_TYPE":"0","CLASSIFICATION_TYPE":"U","NORAD_CAT_ID":"42716","ELEMENT_SET_NO":"999","REV_AT_EPOCH":"1450","BSTAR":"0.00028280000000","MEAN_MOTION_DOT":"0.00020575","MEAN_MOTION_DDOT":"0.0000000000000","SEMIMAJOR_AXIS":"6773.741","PERIOD":"92.470","APOAPSIS":"398.936","PERIAPSIS":"392.276","OBJECT_TYPE":"PAYLOAD","RCS_SIZE":"SMALL","COUNTRY_CODE":"GREC","LAUNCH_DATE":"1998-11-20","SITE":"TTMTR","DECAY_DATE":null,"FILE":"2169570","GP_ID":"113403532","TLE_LINE0":"0 UPSAT","TLE_LINE1":"1 42716U 98067LX  17231.51271808  .00020575  00000-0  28280-3 0  9998","TLE_LINE2":"2 42716  51.6396  81.2882 0004916 193.3097 166.7766 15.57255380 14503"},{"CCSDS_OMM_VERS":"2.0","COMMENT":"GENERATED VIA SPACE-TRACK.ORG API","CREATION_DATE":"2017-08-19T23:09:46","ORIGINATOR":"18 SPCS","OBJECT_NAME":"UPSAT","OBJECT_ID":"1998-067LX","CENTER_NAME":"EARTH","REF_FRAME":"TEME","TIME_SYSTEM":"UTC","MEAN_ELEMENT_THEORY":"SGP4","EPOCH":"2017-08-19T20:00:21.387168","MEAN_MOTION":"15.57268041","ECCENTRICITY":"0.00049190","INCLINATION":"51.6397","RA_OF_ASC_NODE":"79.6811","ARG_OF_PERICENTER":"194.8034","MEAN_ANOMALY":"165.2815","EPHEMERIS_TYPE":"0","CLASSIFICATION_TYPE":"U","NORAD_CAT_ID":"42716","ELEMENT_SET_NO":"999","REV_AT_EPOCH":"1455","BSTAR":"0.00027547000000","MEAN_MOTION_DOT":"0.00020037","MEAN_MOTION_DDOT":"0.0000000000000","SEMIMAJOR_AXIS":"6773.704","PERIOD":"92.469","APOAPSIS":"398.901","PERIAPSIS":"392.237","OBJECT_TYPE":"PAYLOAD","RCS_SIZE":"SMALL","COUNTRY_CODE":"GREC","LAUNCH_DATE":"1998-11-20","SITE":"TTMTR","DECAY_DATE":null,"FILE":"2169718","GP_ID":"113406830","TLE_LINE0":"0 UPSAT","TLE_LINE1":"1 42716U 98067LX  17231.83358087  .00020037  00000-0  27547-3 0  9996","TLE_LINE2":"2 42716  51.6397  79.6811 0004919 194.8034 165.2815 15.57268041 14559"},{"CCSDS_OMM_VERS":"2.0","COMMENT":"GENERATED VIA SPACE-TRACK.ORG API","CREATION_DATE":"2017-08-20T07:02:27","ORIGINATOR":"18 SPCS","OBJECT_NAME":"UPSAT","OBJECT_ID":"1998-067LX","CENTER_NAME":"EARTH","REF_FRAME":"TEME","TIME_SYSTEM":"UTC","MEAN_ELEMENT_THEORY":"SGP4","EPOCH":"2017-08-19T23:05:10.327776","MEAN_MOTION":"15.57273924","ECCENTRICITY":"0.00049130","INCLINATION":"51.6396","RA_OF_ASC_NODE":"79.0383","ARG_OF_PERICENTER":"195.4376","MEAN_ANOMALY":"164.6467","EPHEMERIS_TYPE":"0","CLASSIFICATION_TYPE":"U","NORAD_CAT_ID":"42716","ELEMENT_SET_NO":"999","REV_AT_EPOCH":"1457","BSTAR":"0.00027933000000","MEAN_MOTION_DOT":"0.00020330","MEAN_MOTION_DDOT":"0.0000000000000","SEMIMAJOR_AXIS":"6773.687","PERIOD":"92.469","APOAPSIS":"398.880","PERIAPSIS":"392.224","OBJECT_TYPE":"PAYLOAD","RCS_SIZE":"SMALL","COUNTRY_CODE":"GREC","LAUNCH_DATE":"1998-11-20","SITE":"TTMTR","DECAY_DATE":null,"FILE":"2169852","GP_ID":"113418790","TLE_LINE0":"0 UPSAT","TLE_LINE1":"1 42716U 98067LX  17231.96192509  .00020330  00000-0  27933-3 0  9990","TLE_LINE2":"2 42716  51.6396  79.0383 0004913 195.4376 164.6467 15.57273924 14570"},{"CCSDS_OMM_VERS":"2.0","COMMENT":"GENERATED VIA SPACE-TRACK.ORG API","CREATION_DATE":"2017-08-20T15:01:27","ORIGINATOR":"18 SPCS","OBJECT_NAME":"UPSAT","OBJECT_ID":"1998-067LX","CENTER_NAME":"EARTH","REF_FRAME":"TEME","TIME_SYSTEM":"UTC","MEAN_ELEMENT_THEORY":"SGP4","EPOCH":"2017-08-20T09:52:01.339104","MEAN_MOTION":"15.57293884","ECCENTRICITY":"0.00048830","INCLINATION":"51.6394","RA_OF_ASC_NODE":"76.7887","ARG_OF_PERICENTER":"197.6192","MEAN_ANOMALY":"162.4631","EPHEMERIS_TYPE":"0","CLASSIFICATION_TYPE":"U","NORAD_CAT_ID":"42716","ELEMENT_SET_NO":"999","REV_AT_EPOCH":"1464","BSTAR":"0.00028846000000","MEAN_MOTION_DOT":"0.00021029","MEAN_MOTION_DDOT":"0.0000000000000","SEMIMAJOR_AXIS":"6773.629","PERIOD":"92.468","APOAPSIS":"398.802","PERIAPSIS":"392.187","OBJECT_TYPE":"PAYLOAD","RCS_SIZE":"SMALL","COUNTRY_CODE":"GREC","LAUNCH_DATE":"1998-11-20","SITE":"TTMTR","DECAY_DATE":null,"FILE":"2170009","GP_ID":"113428720","TLE_LINE0":"0 UPSAT","TLE_LINE1":"1 42716U 98067LX  17232.41112661  .00021029  00000-0  28846-3 0  9992","TLE_LINE2":"2 42716  51.6394  76.7887 0004883 197.6192 162.4631 15.57293884 14641"},{"CCSDS_OMM_VERS":"2.0","COMMENT":"GENERATED VIA SPACE-TRACK.ORG API","CREATION_DATE":"2017-08-20T22:17:19","ORIGINATOR":"18 SPCS","OBJECT_NAME":"UPSAT","OBJECT_ID":"1998-067LX","CENTER_NAME":"EARTH","REF_FRAME":"TEME","TIME_SYSTEM":"UTC","MEAN_ELEMENT_THEORY":"SGP4","EPOCH":"2017-08-20T14:29:14.490816","MEAN_MOTION":"15.57301138","ECCENTRICITY":"0.00048930","INCLINATION":"51.6395","RA_OF_ASC_NODE":"75.8240","ARG_OF_PERICENTER":"198.2835","MEAN_ANOMALY":"161.7981","EPHEMERIS_TYPE":"0","CLASSIFICATION_TYPE":"U","NORAD_CAT_ID":"42716","ELEMENT_SET_NO":"999","REV_AT_EPOCH":"1467","BSTAR":"0.00027787000000","MEAN_MOTION_DOT":"0.00020242","MEAN_MOTION_DDOT":"0.0000000000000","SEMIMAJOR_AXIS":"6773.608","PERIOD":"92.467","APOAPSIS":"398.788","PERIAPSIS":"392.159","OBJECT_TYPE":"PAYLOAD","RCS_SIZE":"SMALL","COUNTRY_CODE":"GREC","LAUNCH_DATE":"1998-11-20","SITE":"TTMTR","DECAY_DATE":null,"FILE":"2170069","GP_ID":"113436866","TLE_LINE0":"0 UPSAT","TLE_LINE1":"1 42716U 98067LX  17232.60363994 +.00020242 +00000-0 +27787-3 0  9999","TLE_LINE2":"2 42716 051.6395 075.8240 0004893 198.2835 161.7981 15.57301138014672"},{"CCSDS_OMM_VERS":"2.0","COMMENT":"GENERATED VIA SPACE-TRACK.ORG API","CREATION_DATE":"2017-08-20T23:13:58","ORIGINATOR":"18 SPCS","OBJECT_NAME":"UPSAT","OBJECT_ID":"1998-067LX","CENTER_NAME":"EARTH","REF_FRAME":"TEME","TIME_SYSTEM":"UTC","MEAN_ELEMENT_THEORY":"SGP4","EPOCH":"2017-08-20T20:38:51.891648","MEAN_MOTION":"15.57310809","ECCENTRICITY":"0.00048800","INCLINATION":"51.6395","RA_OF_ASC_NODE":"74.5383","ARG_OF_PERICENTER":"199.4924","MEAN_ANOMALY":"160.5882","EPHEMERIS_TYPE":"0","CLASSIFICATION_TYPE":"U","NORAD_CAT_ID":"42716","ELEMENT_SET_NO":"999","REV_AT_EPOCH":"1471","BSTAR":"0.00026734000000","MEAN_MOTION_DOT":"0.00019461","MEAN_MOTION_DDOT":"0.0000000000000","SEMIMAJOR_AXIS":"6773.580","PERIOD":"92.467","APOAPSIS":"398.751","PERIAPSIS":"392.140","OBJECT_TYPE":"PAYLOAD","RCS_SIZE":"SMALL","COUNTRY_CODE":"GREC","LAUNCH_DATE":"1998-11-20","SITE":"TTMTR","DECAY_DATE":null,"FILE":"2170156","GP_ID":"113439013","TLE_LINE0":"0 UPSAT","TLE_LINE1":"1 42716U 98067LX  17232.86032282  .00019461  00000-0  26734-3 0  9992","TLE_LINE2":"2 42716  51.6395  74.5383 0004880 199.4924 160.5882 15.57310809 14711"},{"CCSDS_OMM_VERS":"2.0","COMMENT":"GENERATED VIA SPACE-TRACK.ORG API","CREATION_DATE":"2017-08-21T07:19:22","ORIGINATOR":"18 SPCS","OBJECT_NAME":"UPSAT","OBJECT_ID":"1998-067LX","CENTER_NAME":"EARTH","REF_FRAME":"TEME","TIME_SYSTEM":"UTC","MEAN_ELEMENT_THEORY":"SGP4","EPOCH":"2017-08-20T22:11:16.227168","MEAN_MOTION":"15.57313692","ECCENTRICITY":"0.00048310","INCLINATION":"51.6393","RA_OF_ASC_NODE":"74.2176","ARG_OF_PERICENTER":"199.9544","MEAN_ANOMALY":"160.1259","EPHEMERIS_TYPE":"0","CLASSIFICATION_TYPE":"U","NORAD_CAT_ID":"42716","ELEMENT_SET_NO":"999","REV_AT_EPOCH":"1472","BSTAR":"0.00027355000000","MEAN_MOTION_DOT":"0.00019928","MEAN_MOTION_DDOT":"0.0000000000000","SEMIMAJOR_AXIS":"6773.572","PERIOD":"92.466","APOAPSIS":"398.709","PERIAPSIS":"392.165","OBJECT_TYPE":"PAYLOAD","RCS_SIZE":"SMALL","COUNTRY_CODE":"GREC","LAUNCH_DATE":"1998-11-20","SITE":"TTMTR","DECAY_DATE":null,"FILE":"2170306","GP_ID":"113442381","TLE_LINE0":"0 UPSAT","TLE_LINE1":"1 42716U 98067LX  17232.92449337  .00019928  00000-0  27355-3 0  9990","TLE_LINE2":"2 42716  51.6393  74.2176 0004831 199.9544 160.1259 15.57313692 14723"},{"CCSDS_OMM_VERS":"2.0","COMMENT":"GENERATED VIA SPACE-TRACK.ORG API","CREATION_DATE":"2017-08-21T09:09:29","ORIGINATOR":"18 SPCS","OBJECT_NAME":"UPSAT","OBJECT_ID":"1998-067LX","CENTER_NAME":"EARTH","REF_FRAME":"TEME","TIME_SYSTEM":"UTC","MEAN_ELEMENT_THEORY":"SGP4","EPOCH":"2017-08-20T22:11:16.227168","MEAN_MOTION":"15.57313692","ECCENTRICITY":"0.00048310","INCLINATION":"51.6393","RA_OF_ASC_NODE":"74.2176","ARG_OF_PERICENTER":"199.9544","MEAN_ANOMALY":"160.1259","EPHEMERIS_TYPE":"0","CLASSIFICATION_TYPE":"U","NORAD_CAT_ID":"42716","ELEMENT_SET_NO":"999","REV_AT_EPOCH":"1472","BSTAR":"0.00027355000000","MEAN_MOTION_DOT":"0.00019928","MEAN_MOTION_DDOT":"0.0000000000000","SEMIMAJOR_AXIS":"6773.572","PERIOD":"92.466","APOAPSIS":"398.709","PERIAPSIS":"392.165","OBJECT_TYPE":"PAYLOAD","RCS_SIZE":"SMALL","COUNTRY_CODE":"GREC","LAUNCH_DATE":"1998-11-20","SITE":"TTMTR","DECAY_DATE":null,"FILE":"2170346","GP_ID":"113451071","TLE_LINE0":"0 UPSAT","TLE_LINE1":"1 42716U 98067LX  17232.92449337 +.00019928 +00000-0 +27355-3 0  9990","TLE_LINE2":"2 42716 051.6393 074.2176 0004831 199.9544 160.1259 15.57313692014723"}]